P/2015 PD229 (Cameron-ISON),e,2.0256,342.6835,352.2801,7.176966,0.0512617,0.32755858,69.1821,04/24.0/2019,2000,g 11.5,2.0
# From MPC 99819
P/2015 Q1 (Scotti),e,22.4600,203.1570,199.8971,3.465138,0.1528000,0.48005559,203.1964,04/24.0/2019,2000,g 14.0,4.0
# From MPC 96867
P/2015 Q2 (Pimentel),e,146.4545,228.3567,244.3733,7.344072,0.0495221,0.75168469,65.6092,04/24.0/2019,2000,g 15.5,4.0
# From MPC 98562
P/2015 R1 (PANSTARRS),e,22.6721,48.5112,300.3755,5.883107,0.0690707,0.63314318,96.5575,04/24.0/2019,2000,g 14.0,4.0
# From MPC 95734
P/2015 R2 (PANSTARRS),e,15.4652,168.6326,149.6704,4.490780,0.1035670,0.45212127,146.4732,04/24.0/2019,2000,g 14.5,4.0
# From MPC102097
C/2015 R3 (PANSTARRS),h,02/13.1969/2014,83.6144,36.4005,271.9997,1.000036,4.897036,2000,10.0,4.0
# From MPC112390
C/2015 T2 (PANSTARRS),e,124.5492,51.0600,30.6964,4626,0.0000031,0.99850097,0.0000,05/19.4256/2017,2000,g  8.0,4.0
# From MPC 96280
P/2015 T3 (PANSTARRS),e,13.0937,120.5019,178.6330,4.326181,0.1095335,0.50818108,359.9227,12/21.0/2014,2000,g 14.0,4.0
# From MPC102953
C/2015 T4 (PANSTARRS),e,87.9581,251.7962,270.0608,81.50739,0.0013394,0.97183565,0.0000,06/18.0791/2016,2000,g 11.0,4.0
# From MPC102097
C/2015 T5 (Sheppard-Tholen),e,11.0477,311.0971,61.7727,27.98994,0.0066558,0.66654559,7.9112,04/24.0/2019,2000,g  7.5,4.0
# From MPC102953
P/2015 TO19 (Lemmon-PANSTARRS),e,6.4991,321.6385,89.2686,4.558916,0.1012539,0.35773727,115.8287,04/24.0/2019,2000,g 14.0,4.0
# From MPC110080
P/2015 TP200 (LINEAR),e,8.7714,6.9764,82.7825,7.289034,0.0500840,0.53519625,45.4764,04/24.0/2019,2000,g 11.0,4.0
# From MPC101097
C/2015 TQ209 (LINEAR),e,11.3526,223.7801,281.7505,856.9382,0.0000393,0.99835151,0.0000,08/27.2258/2016,2000,g 10.5,4.0
# From MPC112390
C/2015 V1 (PANSTARRS),e,139.2238,197.1881,179.6127,14818,0.0000005,0.99971207,0.0000,12/17.5390/2017,2000,g  6.5,4.0
# From MPC112390
C/2015 V2 (Johnson),h,06/12.3106/2017,49.8772,69.8435,164.9420,1.001755,1.638699,2000,5.0,4.0
# From MPC102953
C/2015 V3 (PANSTARRS),e,86.2317,2.2972,0.7112,635.0989,0.0000616,0.99333726,0.0000,11/24.0784/2015,2000,g  9.0,4.0
# From MPC104791
C/2015 V4 (PANSTARRS),e,60.7465,179.9025,307.0795,18.53804,0.0123483,0.70525165,11.9494,04/24.0/2019,2000,g  8.5,4.0
# From MPC111768
C/2015 VL62 (Lemmon-Yeung-PANSTARRS),h,08/28.4261/2017,165.8139,95.0838,128.7378,1.001831,2.713411,2000,8.0,4.0
# From MPC102098
C/2015 WZ (PANSTARRS),e,134.5345,40.1179,66.6145,147.4018,0.0005507,0.99067064,0.0000,04/14.4451/2016,2000,g 15.0,4.0
# From MPC109142
C/2015 W1 (Gibbs),h,05/16.7726/2016,87.3121,114.3230,48.1444,1.000734,2.234567,2000,13.0,4.0
# From MPC101098
P/2015 W2 (Catalina),e,11.6064,294.2398,117.6418,7.306936,0.0499001,0.63315635,64.9643,04/24.0/2019,2000,g 13.0,4.0
# From MPC101098
P/2015 X1 (PANSTARRS),e,12.1529,161.7807,219.0306,3.630036,0.1425075,0.41897452,184.2797,04/24.0/2019,2000,g 16.0,4.0
# From MPC112390
C/2015 XY1 (Lemmon),h,04/29.3440/2018,148.8542,281.6228,196.3205,1.004460,7.927460,2000,5.5,4.0
# From MPC 10028
C/2015 X2 (Catalina),e,72.3445,101.1008,42.3300,15.88279,0.0155709,0.87910663,19.0001,04/24.0/2019,2000,g 16.0,4.0
# From MPC 97498
P/2015 X3 (PANSTARRS),e,24.3817,77.3393,306.7129,5.014297,0.0877787,0.43776568,119.0334,04/24.0/2019,2000,g 15.0,4.0
# From MPC109142
C/2015 X4 (Elenin),e,29.4998,262.6254,176.3319,18.00983,0.0128955,0.81142591,16.3551,04/24.0/2019,2000,g 10.0,4.0
# From MPC112390
C/2015 X5 (PANSTARRS),h,12/30.7171/2017,124.3049,122.3321,27.7367,1.003487,6.801155,2000,7.5,4.0
# From MPC101098
P/2015 X6 (PANSTARRS),e,4.5645,106.9480,329.8479,2.752869,0.2157872,0.17208538,242.9951,04/24.0/2019,2000,g 16.0,4.0
# From MPC109143
C/2015 X7 (ATLAS),h,07/29.9355/2016,57.5633,139.8891,348.5058,1.000822,3.686395,2000,9.0,4.0
# From MPC107048
C/2015 X8 (NEOWISE),e,155.2449,191.1357,20.4537,19.76915,0.0112130,0.93985378,14.3329,04/24.0/2019,2000,g 16.0,4.0
# From MPC109143
C/2015 Y1 (LINEAR),e,71.1883,135.8024,24.7136,266.8336,0.0002261,0.99057081,0.0000,05/14.7997/2016,2000,g 12.0,4.0
# From MPC105543
C/2015 YG1 (NEOWISE),e,57.2548,350.4828,102.5788,17.03825,0.0140142,0.87864412,18.2748,04/24.0/2019,2000,g 13.0,4.0
# From MPC112390
C/2016 A1 (PANSTARRS),h,11/23.3222/2017,121.2011,128.1890,10.3188,1.002334,5.327348,2000,6.0,4.0
# From MPC 10028
P/2016 A2 (Christensen),e,26.4009,291.6368,141.6838,4.745973,0.0953271,0.27241090,133.3457,04/24.0/2019,2000,g 11.5,4.0
# From MPC110494
P/2016 A3 (PANSTARRS),e,8.5320,187.5424,340.0470,7.866563,0.0446711,0.38866336,32.5226,04/24.0/2019,2000,g 10.0,4.0
# From MPC109143
C/2016 A5 (PANSTARRS),e,40.2374,136.1361,321.6204,736.1684,0.0000493,0.99599587,0.0000,06/27.1048/2015,2000,g 13.5,4.0
# From MPC109143
C/2016 A6 (PANSTARRS),e,120.9347,300.3409,141.1127,208.8059,0.0003267,0.98845562,0.0000,11/06.0707/2015,2000,g 15.0,4.0
# From MPC102098
P/2016 A7 (PANSTARRS),e,16.6356,221.4629,352.6080,5.028419,0.0874092,0.56618032,100.7990,04/24.0/2019,2000,g 16.0,4.0
# From MPC106345
C/2016 A8 (LINEAR),e,148.2441,111.3497,130.3413,34.34637,0.0048965,0.94519383,4.7348,04/24.0/2019,2000,g 12.0,4.0
# From MPC107048
C/2016 B1 (NEOWISE),e,50.4749,231.9554,8.6317,432.6099,0.0001095,0.99258121,0.0000,12/04.8676/2016,2000,g  9.5,4.0
# From MPC109143
P/2016 BA14 (PANSTARRS),e,18.9053,180.5408,351.9240,3.023360,0.1874862,0.66552195,212.7796,04/24.0/2019,2000,g 21.0,4.0
# From MPC110494
C/2016 C1 (PANSTARRS),h,02/19.8841/2016,56.1945,181.7863,328.8034,1.003474,8.467242,2000,5.5,4.0
# From MPC101098
C/2016 C2 (NEOWISE),e,38.1298,24.4140,214.4919,65.60986,0.0018546,0.97617979,0.0000,04/19.7425/2016,2000,g 16.0,4.0
# From MPC110494
C/2016 E1 (PANSTARRS),h,06/03.3256/2017,131.8925,233.0406,47.4190,1.004355,8.178901,2000,6.5,4.0
# From MPC 99821
C/2016 E2 (Kowalski),e,135.9320,186.7416,321.8558,138.0106,0.0006079,0.99219824,0.0000,02/06.4590/2016,2000,g 20.0,4.0
# From MPC102098
P/2016 G1 (PANSTARRS),e,10.9680,204.0641,111.2732,2.582775,0.2374511,0.21066971,194.1174,04/24.0/2019,2000,g 14.0,4.0
# From MPEC 2017-D91
P/2016 J1-A (PANSTARRS),e,14.3267,199.8483,46.7940,3.174242,0.1742786,0.22833056,180.0194,04/24.0/2019,2000,g 16.5,4.0
# From MPEC 2017-A77
P/2016 J1-B (PANSTARRS),e,14.3294,199.8531,46.6853,3.173871,0.1743091,0.22818216,180.1256,04/24.0/2019,2000,g 17.0,4.0
# From MPC101099
C/2016 J2 (Denneau),e,130.3451,186.2698,318.5689,597.1827,0.0000675,0.99745277,0.0000,04/11.8608/2016,2000,g 17.0,4.0
# From MPC102099
C/2016 KA (Catalina),e,104.6581,317.5227,63.1569,3431,0.0000049,0.99842471,0.0000,02/01.6758/2016,2000,g  8.5,4.0
# From MPC104792
C/2016 K1 (LINEAR),e,90.8789,325.6586,18.2447,7659,0.0000015,0.99970075,0.0000,07/13.2108/2016,2000,g 13.0,4.0
# From MPC112390
C/2016 M1 (PANSTARRS),e,91.0006,92.2030,209.8343,2226,0.0000094,0.99900678,0.0000,08/10.1872/2018,2000,g  5.0,4.0
# From MPC112390
C/2016 N4 (MASTER),e,72.5652,354.0170,55.9470,2521,0.0000078,0.99873119,0.0000,09/16.4921/2017,2000,g  8.5,4.0
# From MPC112390
C/2016 N6 (PANSTARRS),e,105.8375,298.9792,162.8017,2211,0.0000095,0.99879291,0.0000,07/18.1990/2018,2000,g  7.0,4.0
# From MPC102099
P/2016 P1 (PANSTARRS),e,24.4498,319.5750,270.0020,3.195319,0.1725570,0.28952581,225.7818,04/24.0/2019,2000,g 15.0,4.0
# From MPC102099
C/2016 P4 (PANSTARRS),e,29.8852,320.7616,356.0753,371.4183,0.0001377,0.98414277,0.0000,10/17.2076/2016,2000,g 10.5,4.0
# From MPC112391
C/2016 Q2 (PANSTARRS),e,109.3945,322.3047,84.4543,6781,0.0000018,0.99895521,0.0000,05/11.0417/2021,2000,g  6.0,4.0
# From MPC102955
C/2016 Q4 (Kowalski),e,7.2576,271.2855,99.3779,16.85198,0.0142471,0.57954030,6.4509,04/24.0/2019,2000,g  7.0,4.0
# From MPC112391
C/2016 R2 (PANSTARRS),e,58.2242,80.5703,33.1909,642.1602,0.0000606,0.99594724,0.0000,05/09.5536/2018,2000,g  7.0,4.0
# From MPC102099
C/2016 R3 (Borisov),e,53.0458,78.6243,118.1581,200.5035,0.0003472,0.99775867,0.0000,10/10.8156/2016,2000,g 18.0,4.0
# From MPC109144
P/2016 R4 (Gibbs),e,10.8638,168.3108,173.9855,5.332271,0.0800453,0.47551429,80.6428,04/24.0/2019,2000,g 12.5,4.0
# From MPC105543
P/2016 S1 (PANSTARRS),e,94.6439,227.5130,273.2813,8.287790,0.0413091,0.71060241,31.7337,04/24.0/2019,2000,g 12.0,4.0
# From MPC105238
C/2016 T1 (Matheny),e,129.8422,56.2494,137.3248,122.3610,0.0007282,0.98120224,0.0000,02/01.3631/2017,2000,g 14.5,4.0
# From MPC107685
C/2016 T2 (Matheny),e,81.3271,339.1160,92.2772,99.42543,0.0009942,0.98080754,0.0000,12/28.9446/2016,2000,g 14.5,4.0
# From MPC110082
C/2016 T3 (PANSTARRS),e,22.6769,271.7433,194.7096,138.2594,0.0006063,0.98082717,0.0000,09/06.9159/2017,2000,g 10.5,4.0
# From MPC103847
C/2016 U1 (NEOWISE),h,01/14.0581/2017,46.4417,61.4153,162.8152,1.000368,0.320298,2000,17.0,4.0
# From MPC106345
C/2016 VZ18 (PANSTARRS),e,24.0706,98.9272,36.3324,177.4752,0.0004169,0.99487956,0.0000,03/07.1981/2017,2000,g 19.5,4.0
# From MPC106345
P/2016 WM48 (Lemmon),e,117.4755,59.8933,36.1461,8.194352,0.0420177,0.78481047,33.0971,04/24.0/2019,2000,g 15.0,4.0
# From MPC112391
C/2016 X1 (Lemmon),e,26.4559,256.4267,224.5576,1729,0.0000137,0.99562386,0.0000,04/29.7392/2019,2000,g  6.0,4.0
# From MPC108594
C/2017 A1 (PANSTARRS),e,49.7944,121.0402,2.0884,78.77968,0.0014096,0.97090644,0.0000,05/16.9342/2017,2000,g 13.0,4.0
# From MPC108594
C/2017 A3 (Elenin),e,98.5345,97.9056,304.0948,43.49200,0.0034363,0.91140341,2.7948,04/24.0/2019,2000,g  9.5,4.0
# From MPC111768
C/2017 AB5 (PANSTARRS),e,32.4310,42.6800,78.3971,4630,0.0000031,0.99800954,0.0000,02/17.6331/2018,2000,g  5.5,4.0
# From MPC112391
C/2017 B3 (LINEAR),h,02/02.5341/2019,54.1788,2.1774,284.7553,1.002137,3.921177,2000,6.0,4.0
# From MPC103847
P/2017 B4 (PANSTARRS),e,20.0584,121.4578,11.0197,4.410520,0.1064068,0.36495152,359.9130,01/05.0/2017,2000,g 14.5,4.0
# From MPC104793
C/2017 C1 (NEOWISE),e,65.7278,357.4482,110.1681,20.67113,0.0104872,0.92736249,8.6554,04/24.0/2019,2000,g 18.0,4.0
# From MPC107685
C/2017 C2 (PANSTARRS),e,118.5919,249.8259,138.7230,98.46920,0.0010087,0.97533881,0.0000,01/21.6307/2017,2000,g 14.0,4.0
# From MPC104793
